CTC2_L_00474021-09
1 21108U 24401KP  26037.47796296  .00000000  00000+0  00000-0 0  9990
2 21108  88.0000 240.0000 0000000   0.0000 320.0000 15.05490494    13
CTC2_L_00474021-10
1 21109U 23299LF  26037.47796296  .00000000  00000+0  00000-0 0  9995
2 21109  88.0000 240.0000 0000000   0.0000 350.0000 15.05490494    17
CTC2_L_00474021-11
1 21110U 23834YP  26037.47796296  .00000000  00000+0  00000-0 0  9992
2 21110  88.0000 240.0000 0000000   0.0000  20.0000 15.05490494    13
CTC2_L_00474021-12
1 21111U 26739MS  26037.47796296  .00000000  00000+0  00000-0 0  9990
2 21111  88.0000 240.0000 0000000   0.0000  50.0000 15.05490494    17
CTC2_L_00474022-01
1 21112U 25859VN  26037.47796296  .00000000  00000+0  00000-0 0  9993
2 21112  88.0000 252.0000 0000000   0.0000  84.0000 15.05490494    18
CTC2_L_00474022-02
1 21113U 25959XN  26037.47796296  .00000000  00000+0  00000-0 0  9995
2 21113  88.0000 252.0000 0000000   0.0000 114.0000 15.05490494    13
CTC2_L_00474022-03
1 21114U 22108QU  26037.47796296  .00000000  00000+0  00000-0 0  9999
2 21114  88.0000 252.0000 0000000   0.0000 144.0000 15.05490494    17
CTC2_L_00474022-04
1 21115U 25259MU  26037.47796296  .00000000  00000+0  00000-0 0  9990
2 21115  88.0000 252.0000 0000000   0.0000 174.0000 15.05490494    11
CTC2_L_00474022-05
1 21116U 26500DE  26037.47796296  .00000000  00000+0  00000-0 0  9991
2 21116  88.0000 252.0000 0000000   0.0000 204.0000 15.05490494    16
CTC2_L_00474022-06
1 21117U 24406RT  26037.47796296  .00000000  00000+0  00000-0 0  9995
2 21117  88.0000 252.0000 0000000   0.0000 234.0000 15.05490494    10
CTC2_L_00474022-07
1 21118U 24270BJ  26037.47796296  .00000000  00000+0  00000-0 0  9995
2 21118  88.0000 252.0000 0000000   0.0000 264.0000 15.05490494    14
CTC2_L_00474022-08
1 21119U 24970VS  26037.47796296  .00000000  00000+0  00000-0 0  9993
2 21119  88.0000 252.0000 0000000   0.0000 294.0000 15.05490494    18
CTC2_L_00474022-09
1 21120U 26104FY  26037.47796296  .00000000  00000+0  00000-0 0  9996
2 21120  88.0000 252.0000 0000000   0.0000 324.0000 15.05490494    14
CTC2_L_00474022-10
1 21121U 23581TI  26037.47796296  .00000000  00000+0  00000-0 0  9993
2 21121  88.0000 252.0000 0000000   0.0000 354.0000 15.05490494    18
CTC2_L_00474022-11
1 21122U 22322AI  26037.47796296  .00000000  00000+0  00000-0 0  9996
2 21122  88.0000 252.0000 0000000   0.0000  24.0000 15.05490494    13
CTC2_L_00474022-12
1 21123U 22530D   26037.47796296  .00000000  00000+0  00000-0 0  9998
2 21123  88.0000 252.0000 0000000   0.0000  54.0000 15.05490494    17
CTC2_L_00474023-01
1 21124U 26501AV  26037.47796296  .00000000  00000+0  00000-0 0  9991
2 21124  88.0000 264.0000 0000000   0.0000  88.0000 15.05490494    18
CTC2_L_00474023-02
1 21125U 22992OS  26037.47796296  .00000000  00000+0  00000-0 0  9992
2 21125  88.0000 264.0000 0000000   0.0000 118.0000 15.05490494    13
CTC2_L_00474023-03
1 21126U 24589XA  26037.47796296  .00000000  00000+0  00000-0 0  9997
2 21126  88.0000 264.0000 0000000   0.0000 148.0000 15.05490494    17
CTC2_L_00474023-04
1 21127U 26212CV  26037.47796296  .00000000  00000+0  00000-0 0  9993
2 21127  88.0000 264.0000 0000000   0.0000 178.0000 15.05490494    11
CTC2_L_00474023-05
1 21128U 25658PO  26037.47796296  .00000000  00000+0  00000-0 0  9997
2 21128  88.0000 264.0000 0000000   0.0000 208.0000 15.05490494    16
CTC2_L_00474023-06
1 21129U 24646TO  26037.47796296  .00000000  00000+0  00000-0 0  9994
2 21129  88.0000 264.0000 0000000   0.0000 238.0000 15.05490494    10
CTC2_L_00474023-07
1 21130U 24367SD  26037.47796296  .00000000  00000+0  00000-0 0  9996
2 21130  88.0000 264.0000 0000000   0.0000 268.0000 15.05490494    15
CTC2_L_00474023-08
1 21131U 26625HW  26037.47796296  .00000000  00000+0  00000-0 0  9996
2 21131  88.0000 264.0000 0000000   0.0000 298.0000 15.05490494    19
CTC2_L_00474023-09
1 21132U 25740PJ  26037.47796296  .00000000  00000+0  00000-0 0  9994
2 21132  88.0000 264.0000 0000000   0.0000 328.0000 15.05490494    14
CTC2_L_00474023-10
1 21133U 22691BG  26037.47796296  .00000000  00000+0  00000-0 0  9997
2 21133  88.0000 264.0000 0000000   0.0000 358.0000 15.05490494    18
CTC2_L_00474023-11
1 21134U 22328IR  26037.47796296  .00000000  00000+0  00000-0 0  9995
2 21134  88.0000 264.0000 0000000   0.0000  28.0000 15.05490494    13
CTC2_L_00474023-12
1 21135U 23593CF  26037.47796296  .00000000  00000+0  00000-0 0  9991
2 21135  88.0000 264.0000 0000000   0.0000  58.0000 15.05490494    17
CTC2_L_00474024-01
1 21136U 25467MR  26037.47796296  .00000000  00000+0  00000-0 0  9994
2 21136  88.0000 276.0000 0000000   0.0000  92.0000 15.05490494    19
CTC2_L_00474024-02
1 21137U 23722JV  26037.47796296  .00000000  00000+0  00000-0 0  9997
2 21137  88.0000 276.0000 0000000   0.0000 122.0000 15.05490494    14
CTC2_L_00474024-03
1 21138U 22868HP  26037.47796296  .00000000  00000+0  00000-0 0  9998
2 21138  88.0000 276.0000 0000000   0.0000 152.0000 15.05490494    18
CTC2_L_00474024-04
1 21139U 23390TZ  26037.47796296  .00000000  00000+0  00000-0 0  9990
2 21139  88.0000 276.0000 0000000   0.0000 182.0000 15.05490494    12
CTC2_L_00474024-05
1 21140U 22502IF  26037.47796296  .00000000  00000+0  00000-0 0  9996
2 21140  88.0000 276.0000 0000000   0.0000 212.0000 15.05490494    18
CTC2_L_00474024-06
1 21141U 26369HS  26037.47796296  .00000000  00000+0  00000-0 0  9992
2 21141  88.0000 276.0000 0000000   0.0000 242.0000 15.05490494    12
CTC2_L_00474024-07
1 21142U 22637SG  26037.47796296  .00000000  00000+0  00000-0 0  9997
2 21142  88.0000 276.0000 0000000   0.0000 272.0000 15.05490494    16
CTC2_L_00474024-08
1 21143U 22429CU  26037.47796296  .00000000  00000+0  00000-0 0  9997
2 21143  88.0000 276.0000 0000000   0.0000 302.0000 15.05490494    11
CTC2_L_00474024-09
1 21144U 23097ZB  26037.47796296  .00000000  00000+0  00000-0 0  9990
2 21144  88.0000 276.0000 0000000   0.0000 332.0000 15.05490494    15
CTC2_L_00474024-10
1 21145U 25993CD  26037.47796296  .00000000  00000+0  00000-0 0  9998
2 21145  88.0000 276.0000 0000000   0.0000   2.0000 15.05490494    10
CTC2_L_00474024-11
1 21146U 23642QH  26037.47796296  .00000000  00000+0  00000-0 0  9998
2 21146  88.0000 276.0000 0000000   0.0000  32.0000 15.05490494    14
CTC2_L_00474024-12
1 21147U 25560UP  26037.47796296  .00000000  00000+0  00000-0 0  9990
2 21147  88.0000 276.0000 0000000   0.0000  62.0000 15.05490494    18
CTC2_L_00474025-01
1 21148U 23479K   26037.47796296  .00000000  00000+0  00000-0 0  9998
2 21148  88.0000 288.0000 0000000   0.0000  96.0000 15.05490494    19
CTC2_L_00474025-02
1 21149U 26209VV  26037.47796296  .00000000  00000+0  00000-0 0  9993
2 21149  88.0000 288.0000 0000000   0.0000 126.0000 15.05490494    14
CTC2_L_00474025-03
1 21150U 26145CL  26037.47796296  .00000000  00000+0  00000-0 0  9994
2 21150  88.0000 288.0000 0000000   0.0000 156.0000 15.05490494    19
CTC2_L_00474025-04
1 21151U 23628LX  26037.47796296  .00000000  00000+0  00000-0 0  9998
2 21151  88.0000 288.0000 0000000   0.0000 186.0000 15.05490494    13
CTC2_L_00474025-05
1 21152U 23779EL  26037.47796296  .00000000  00000+0  00000-0 0  9996
2 21152  88.0000 288.0000 0000000   0.0000 216.0000 15.05490494    18
CTC2_L_00474025-06
1 21153U 25225VT  26037.47796296  .00000000  00000+0  00000-0 0  9995
2 21153  88.0000 288.0000 0000000   0.0000 246.0000 15.05490494    12
CTC2_L_00474025-07
1 21154U 26789EL  26037.47796296  .00000000  00000+0  00000-0 0  9992
2 21154  88.0000 288.0000 0000000   0.0000 276.0000 15.05490494    16
CTC2_L_00474025-08
1 21155U 23104FN  26037.47796296  .00000000  00000+0  00000-0 0  9991
2 21155  88.0000 288.0000 0000000   0.0000 306.0000 15.05490494    11
CTC2_L_00474025-09
1 21156U 25394C   26037.47796296  .00000000  00000+0  00000-0 0  9995
2 21156  88.0000 288.0000 0000000   0.0000 336.0000 15.05490494    15
CTC2_L_00474025-10
1 21157U 22303SX  26037.47796296  .00000000  00000+0  00000-0 0  9993
2 21157  88.0000 288.0000 0000000   0.0000   6.0000 15.05490494    10
CTC2_L_00474025-11
1 21158U 25375OE  26037.47796296  .00000000  00000+0  00000-0 0  9996
2 21158  88.0000 288.0000 0000000   0.0000  36.0000 15.05490494    14
CTC2_L_00474025-12
1 21159U 24695NB  26037.47796296  .00000000  00000+0  00000-0 0  9991
2 21159  88.0000 288.0000 0000000   0.0000  66.0000 15.05490494    18
CTC2_L_00474026-01
1 21160U 24706NK  26037.47796296  .00000000  00000+0  00000-0 0  9996
2 21160  88.0000 300.0000 0000000   0.0000 100.0000 15.05490494    14
CTC2_L_00474026-02
1 21161U 22380XT  26037.47796296  .00000000  00000+0  00000-0 0  9993
2 21161  88.0000 300.0000 0000000   0.0000 130.0000 15.05490494    18
CTC2_L_00474026-03
1 21162U 24079MS  26037.47796296  .00000000  00000+0  00000-0 0  9991
2 21162  88.0000 300.0000 0000000   0.0000 160.0000 15.05490494    12
CTC2_L_00474026-04
1 21163U 26017FK  26037.47796296  .00000000  00000+0  00000-0 0  9996
2 21163  88.0000 300.0000 0000000   0.0000 190.0000 15.05490494    16
CTC2_L_00474026-05
1 21164U 24617KM  26037.47796296  .00000000  00000+0  00000-0 0  9991
2 21164  88.0000 300.0000 0000000   0.0000 220.0000 15.05490494    11
CTC2_L_00474026-06
1 21165U 26871RN  26037.47796296  .00000000  00000+0  00000-0 0  9996
2 21165  88.0000 300.0000 0000000   0.0000 250.0000 15.05490494    15
CTC2_L_00474026-07
1 21166U 24215GP  26037.47796296  .00000000  00000+0  00000-0 0  9997
2 21166  88.0000 300.0000 0000000   0.0000 280.0000 15.05490494    19
CTC2_L_00474026-08
1 21167U 24891YX  26037.47796296  .00000000  00000+0  00000-0 0  9998
2 21167  88.0000 300.0000 0000000   0.0000 310.0000 15.05490494    14
CTC2_L_00474026-09
1 21168U 26222GL  26037.47796296  .00000000  00000+0  00000-0 0  9999
2 21168  88.0000 300.0000 0000000   0.0000 340.0000 15.05490494    18
CTC2_L_00474026-10
1 21169U 25627IM  26037.47796296  .00000000  00000+0  00000-0 0  9998
2 21169  88.0000 300.0000 0000000   0.0000  10.0000 15.05490494    13
